[{"OBJECT_NAME":"STARLINK-4084","OBJECT_ID":"2022-053B","EPOCH":"2026-03-09T11:08:16.038528","MEAN_MOTION":15.08819125,"ECCENTRICITY":0.00012351,"INCLINATION":53.217,"RA_OF_ASC_NODE":155.4561,"ARG_OF_PERICENTER":85.5909,"MEAN_ANOMALY":274.5225,"EPHEMERIS_TYPE":0,"CLASSIFICATION_TYPE":"U","NORAD_CAT_ID":52657,"ELEMENT_SET_NO":999,"REV_AT_EPOCH":21137,"BSTAR":8.7318066e-5,"MEAN_MOTION_DOT":1.101e-5,"MEAN_MOTION_DDOT":0},{"OBJECT_NAME":"OBJECT E","OBJECT_ID":"2025-013E","EPOCH":"2026-03-09T23:59:52.369152","MEAN_MOTION":15.10347623,"ECCENTRICITY":0.00085591,"INCLINATION":97.6477,"RA_OF_ASC_NODE":238.3736,"ARG_OF_PERICENTER":6.9171,"MEAN_ANOMALY":353.2174,"EPHEMERIS_TYPE":0,"CLASSIFICATION_TYPE":"U","NORAD_CAT_ID":62733,"ELEMENT_SET_NO":999,"REV_AT_EPOCH":6224,"BSTAR":0.00032920786,"MEAN_MOTION_DOT":5.34e-5,"MEAN_MOTION_DDOT":0}]
